satname,norad_id,inclination_deg,eccentricity,mean_motion_rev_per_day,perigee_km,apogee_km,l1,l2
STARLINK-1420,45695,53.0456,0.0004827,15.6733685,363.270715646182,369.7820136584169,1 45695U 20035AQ  26151.88260478  .00061414  00000+0  55950-3 0  9999,2 45695  53.0456 336.2520 0004827 111.9945 248.1584 15.67336850332358
STARLINK-1422,45696,53.1578,0.0003196,15.34306986,460.79329048220916,465.16613228412643,1 45696U 20035AR  26152.04204767  .00051768  00000+0  15371-2 0  9991,2 45696  53.1578  21.5981 0003196 127.2807 232.8487 15.34306986331740
STARLINK-1351,45697,53.0438,0.0004231,15.65707297,368.34970263673677,374.0609961327855,1 45697U 20035AS  26151.83238417  .00053773  00000+0  52428-3 0  9990,2 45697  53.0438 336.8409 0004231 125.4421 234.6989 15.65707297332343
STARLINK-1400,45700,53.0428,0.0002041,15.64554752,373.1413726471892,375.8978070671683,1 45700U 20035AV  26152.58335648  .00017654  00000+0  18478-3 0  9997,2 45700  53.0428 335.6597 0002041  73.4004 150.7666 15.64554752  5856
STARLINK-1403,45701,53.1559,0.0002319,15.33349942,464.23889979507294,467.4131298413449,1 45701U 20035AW  26152.58335648  .00072735  00000+0  22153-2 0  9993,2 45701  53.1559   6.5667 0002319 153.0564 270.8837 15.33349942  5863
STARLINK-1407,45703,53.0279,0.0005306,15.72838969,347.21731861062017,354.35805348745544,1 45703U 20035AY  26151.55018712  .00081532  00000+0  58821-3 0  9998,2 45703  53.0279 267.7591 0005306  11.5441 348.5698 15.72838969333284
STARLINK-1411,45706,53.0312,0.0007659,15.88276713,301.993941850591,312.2344096015677,1 45706U 20035BB  26152.58335648  .00320236  00000+0  10982-2 0  9997,2 45706  53.0312 284.7213 0007659 320.0311 148.8692 15.88276713  5890
STARLINK-1423,45710,53.0442,0.0006212,15.68305018,359.56221195329,367.9383327004289,1 45710U 20035BF  26151.91746217  .00065086  00000+0  56929-3 0  9997,2 45710  53.0442 335.5694 0006212  79.5333 280.6383 15.68305018332356
STARLINK-1433,45711,53.0437,0.0005922,15.67978796,360.69225177167755,368.6784505644009,1 45711U 20035BG  26152.60217233  .00056093  00000+0  49849-3 0  9997,2 45711  53.0437 330.7733 0005922  87.7388 272.4305 15.67978796332485
STARLINK-1434,45712,53.051,0.0002322,15.33746196,463.0582792635969,466.2360682338858,1 45712U 20035BH  26151.96268331  .00056072  00000+0  16928-2 0  9999,2 45712  53.0510 352.1349 0002322  84.7827 275.3439 15.33746196332148
STARLINK-1465,45731,53.0426,0.0001649,15.65295616,371.2755442439202,373.5018676217369,1 45731U 20038B   26152.48146978  .00045687  00000+0  45422-3 0  9995,2 45731  53.0426 176.8823 0001649  68.6807 291.4384 15.65295616329430
STARLINK-1471,45735,53.045,0.0003207,15.53140451,405.38732718629126,409.7396754878482,1 45735U 20038F   26152.08684831  .00028858  00000+0  45814-3 0  9996,2 45735  53.0450 101.1304 0003207  97.4203 262.7171 15.53140451330472
STARLINK-1480,45741,53.0453,0.0006328,15.64640899,369.9988019485181,378.5446504323854,1 45741U 20038M   26152.07582186  .00051780  00000+0  52678-3 0  9998,2 45741  53.0453 172.4896 0006328  11.2554 348.8600 15.64640899329473
STARLINK-1500,45744,53.0332,0.0002079,15.38851567,448.0846839801734,450.9236171705825,1 45744U 20038Q   26152.04261436  .00026024  00000+0  67501-3 0  9994,2 45744  53.0332 160.4674 0002079 104.2720 255.8514 15.38851567329636
STARLINK-1504,45746,53.0198,0.0003672,15.58570275,389.30817865116205,394.2800160490551,1 45746U 20038S   26152.31680470  .00039161  00000+0  50619-3 0  9997,2 45746  53.0198  97.0286 0003672  83.5944 276.5485 15.58570275330533
STARLINK-1506,45747,53.0725,0.0002639,15.28206089,479.3648279801437,482.9851728539634,1 45747U 20038T   26152.42098788  .00007366  00000+0  27676-3 0  9994,2 45747  53.0725 174.3996 0002639 142.3807 217.7377 15.28206089329486
STARLINK-1464,45751,53.0449,0.0004419,15.53709225,402.9094811795021,408.9052195763652,1 45751U 20038X   26151.28044589  .00036952  00000+0  57201-3 0  9992,2 45751  53.0449 168.8648 0004419  17.2925 342.8234 15.53709225329452
STARLINK-1477,45754,53.049,0.0001503,15.18576571,509.1064048620028,511.1770214431763,1 45754U 20038AA  26152.13323797  .00028066  00000+0  13510-2 0  9992,2 45754  53.0490 192.4356 0001503 343.9504  16.1443 15.18576571329194
STARLINK-1478,45755,53.0439,0.0004938,15.67658122,362.2747836378567,368.9349030823596,1 45755U 20038AB  26152.38616013  .00055303  00000+0  49817-3 0  9990,2 45755  53.0439 148.9418 0004938  53.7935 306.3536 15.67658122329815
STARLINK-1493,45759,53.0448,0.0007117,15.64247147,370.5983263184253,380.21131774790774,1 45759U 20038AF  26152.52307121  .00096172  00000+0  98333-3 0  9993,2 45759  53.0448 157.8002 0007117   9.6998 350.4153 15.64247147329709
STARLINK-1494,45760,53.0372,0.0001762,16.03970512,262.2653108845989,264.60580105332247,1 45760U 20038AG  26152.52527030  .00482014  11788-3  73146-3 0  9996,2 45760  53.0372  87.4745 0001762 107.3654 252.7570 16.03970512330694
STARLINK-1502,45764,53.0437,0.0005464,15.60515294,382.4715717003346,389.8636037538017,1 45764U 20038AL  26152.43250562  .00080081  00000+0  95000-3 0  9995,2 45764  53.0437 161.8800 0005464 339.7876  20.2919 15.60515294329652
STARLINK-1470,45772,53.0408,0.0004234,15.34684228,458.9625309453522,464.7546392067943,1 45772U 20038AU  26152.00870176  .00046549  00000+0  13675-2 0  9994,2 45772  53.0408 145.4988 0004234  13.6916 346.4199 15.34684228329840
STARLINK-1482,45773,53.1563,0.0005241,15.37088524,451.14292745239527,458.30513238395633,1 45773U 20038AV  26151.44473510  .00061833  00000+0  16752-2 0  9995,2 45773  53.1563 164.6097 0005241   6.6146 353.4926 15.37088524329547
STARLINK-1496,45780,53.0446,0.000109,15.66780748,367.38686319135013,368.85754769813684,1 45780U 20038BC  26152.58335648  .01256287  00000+0  10458-1 0  9994,2 45780  53.0446 132.0010 0001090  86.7753  30.0230 15.66780748  5837
STARLINK-1513,45786,53.1575,0.0001217,15.31709545,469.8780373574973,471.5450470926753,1 45786U 20038BJ  26152.44273731  .00001650  00000+0  64909-4 0  9993,2 45786  53.1575 161.6185 0001217  94.3416 265.7724 15.31709545329674
STARLINK-1522,46027,53.0629,0.0003304,15.12763341,525.4955163175355,530.0589444409698,1 46027U 20055A   26152.08998648  .00027532  00000+0  15626-2 0  9999,2 46027  53.0629 109.4903 0003304  34.7099 325.4108 15.12763341321499
STARLINK-1523,46028,53.1617,0.0001206,15.30293132,474.110527431998,475.76348888276516,1 46028U 20055B   26152.25570070  .00014743  00000+0  50744-3 0  9995,2 46028  53.1617  98.5469 0001206 100.2562 259.8575 15.30293132321692
STARLINK-1526,46029,53.1614,0.0001223,15.30202909,474.36821978761054,476.0445475792585,1 46029U 20055C   26152.24947719  .00003294  00000+0  12327-3 0  9997,2 46029  53.1614  98.5849 0001223  98.7430 261.3710 15.30202909321686
STARLINK-1555,46032,53.1611,0.0001365,15.30203497,474.2691468953217,476.1401091597727,1 46032U 20055F   26152.23367596  .00007874  00000+0  27766-3 0  9990,2 46032  53.1611  98.6399 0001365 107.4329 252.6821 15.30203497321689
STARLINK-1556,46033,53.1589,0.0001419,15.30231082,474.1497882509666,476.09474323058384,1 46033U 20055G   26152.28213988  .00011123  00000+0  38672-3 0  9991,2 46033  53.1589  98.4347 0001419  82.4232 277.6930 15.30231082321667
STARLINK-1557,46034,53.1598,0.0001283,15.30196738,474.34552286052894,476.10409550076565,1 46034U 20055H   26152.08935606  .00006290  00000+0  22433-3 0  9995,2 46034  53.1598  99.3238 0001283  71.6729 288.4411 15.30196738321636
STARLINK-1558,46035,53.1588,0.0001271,15.30200759,474.34174242308654,476.0838639430567,1 46035U 20055J   26152.22735686  .00005720  00000+0  20511-3 0  9990,2 46035  53.1588  98.6822 0001271 110.9997 249.1140 15.30200759321685
STARLINK-1560,46036,53.1585,0.000122,15.30189471,474.4103945078341,476.0826200836136,1 46036U 20055K   26152.08303740  .00005930  00000+0  21224-3 0  9992,2 46036  53.1585  99.3643 0001220  75.9941 284.1195 15.30189471321669
STARLINK-1569,46039,53.1595,0.000119,15.30212597,474.3619128855553,475.99300172639414,1 46039U 20055N   26152.23050573  .00007163  00000+0  25363-3 0  9993,2 46039  53.1595  98.6617 0001190  90.1416 269.9721 15.30212597321671
STARLINK-1582,46043,53.1597,0.0001689,15.31725142,469.5082865909735,471.8218119232133,1 46043U 20055S   26152.25425267  .00002223  00000+0  83333-4 0  9990,2 46043  53.1597  98.0260 0001689 112.0220 248.0961 15.31725142321687
STARLINK-1591,46045,53.16,0.0001422,15.30205194,474.2250166564245,476.174105574406,1 46045U 20055U   26152.26317232  .00010698  00000+0  37274-3 0  9992,2 46045  53.1600  98.5132 0001422  91.7560 268.3604 15.30205194321668
STARLINK-1524,46047,53.1622,0.0001049,15.31719398,469.96373027620757,471.40061253836757,1 46047U 20055W   26152.22358713  .00011376  00000+0  37756-3 0  9998,2 46047  53.1622  85.4645 0001049  98.4402 261.6718 15.31719398321863
STARLINK-1527,46048,53.1605,0.0001161,15.31722344,469.8782428477716,471.4685366202675,1 46048U 20055X   26152.08842301  .00014103  00000+0  46505-3 0  9997,2 46048  53.1605  86.0799 0001161 101.0914 259.0219 15.31722344321813
STARLINK-1540,46051,53.1609,0.0001071,15.31717262,469.9550293699631,471.42204780032716,1 46051U 20055AA  26152.20497079  .00009795  00000+0  32680-3 0  9993,2 46051  53.1609  85.7421 0001071 114.5033 245.6081 15.31717262321877
STARLINK-1541,46052,53.1593,0.0002789,15.81705626,323.74731218922716,327.48666616439095,1 46052U 20055AB  26152.58335648  .00191841  00000+0  91798-3 0  9997,2 46052  53.1593  70.1433 0002789 184.0147 265.8975 15.81705626  5989
STARLINK-1543,46053,53.1593,0.0001249,15.31719077,469.8277106375335,471.53854590557694,1 46053U 20055AC  26152.11173531  .00011848  00000+0  39273-3 0  9996,2 46053  53.1593  85.9856 0001249  95.8777 264.2366 15.31719077321855
STARLINK-1548,46054,53.1607,0.0001633,15.3171057,469.59007031886813,471.8269032548533,1 46054U 20055AD  26152.19097711  .00003584  00000+0  12717-3 0  9992,2 46054  53.1607  85.6928 0001633  73.9145 286.2036 15.31710570321860
